start=new Date('2022-12-18T00:00:00.000Z').valueOf();
sats=[{"EPOCH":"2022-12-17T17:34:52.697568","REF_FRAME":"TEME","OBJECT_TYPE":"PAYLOAD","PERIOD":"95.438","OBJECT_ID":"2022-045AY","INCLINATION":"53.2179","DECAY_DATE":null,"REV_AT_EPOCH":"3808","CLASSIFICATION_TYPE":"U","CENTER_NAME":"EARTH","SITE":"AFETR","OBJECT_NAME":"STARLINK-3805","RCS_SIZE":"LARGE","TLE_LINE1":"1 52377U 22045AY  22351.73255437  .00000588  00000-0  55065-4 0  9992","MEAN_MOTION_DOT":"0.00000588","FILE":"3707070","EPHEMERIS_TYPE":"0","BSTAR":"0.00005506500000","LAUNCH_DATE":"2022-04-29","SEMIMAJOR_AXIS":"6917.902","APOAPSIS":"541.164","NORAD_CAT_ID":"52377","MEAN_MOTION_DDOT":"0.0000000000000","MEAN_ELEMENT_THEORY":"SGP4","ARG_OF_PERICENTER":"37.5803","TLE_LINE2":"2 52377  53.2179  77.1858 0002020  37.5803 322.5330 15.08832914 38087","MEAN_MOTION":"15.08832914","MEAN_ANOMALY":"322.5330","ELEMENT_SET_NO":"999","COUNTRY_CODE":"US","GP_ID":"220757924","ECCENTRICITY":"0.00020200","PERIAPSIS":"538.370","RA_OF_ASC_NODE":"77.1858","TIME_SYSTEM":"UTC"},{"INCLINATION":"53.2195","OBJECT_ID":"2022-045AZ","SITE":"AFETR","REV_AT_EPOCH":"3809","DECAY_DATE":null,"CLASSIFICATION_TYPE":"U","CENTER_NAME":"EARTH","PERIOD":"95.438","OBJECT_TYPE":"PAYLOAD","REF_FRAME":"TEME","EPOCH":"2022-12-17T17:22:55.098912","APOAPSIS":"541.433","SEMIMAJOR_AXIS":"6917.917","LAUNCH_DATE":"2022-04-29","BSTAR":"0.00003716800000","MEAN_ELEMENT_THEORY":"SGP4","MEAN_MOTION_DDOT":"0.0000000000000","NORAD_CAT_ID":"52378","TLE_LINE1":"1 52378U 22045AZ  22351.72424883  .00000303  00000-0  37168-4 0  9994","MEAN_MOTION_DOT":"0.00000303","RCS_SIZE":"LARGE","OBJECT_NAME":"STARLINK-3806","EPHEMERIS_TYPE":"0","FILE":"3707070","ELEMENT_SET_NO":"999","GP_ID":"220758176","COUNTRY_CODE":"US","TLE_LINE2":"2 52378  53.2195  77.2143 0002386  32.4171 327.6967 15.08827918 38092","MEAN_MOTION":"15.08827918","ARG_OF_PERICENTER":"32.4171","MEAN_ANOMALY":"327.6967","RA_OF_ASC_NODE":"77.2143","PERIAPSIS":"538.132","TIME_SYSTEM":"UTC","ECCENTRICITY":"0.00023860"},{"SITE":"AFETR","CENTER_NAME":"EARTH","DECAY_DATE":null,"REV_AT_EPOCH":"3806","CLASSIFICATION_TYPE":"U","INCLINATION":"53.2203","OBJECT_ID":"2022-045BA","REF_FRAME":"TEME","OBJECT_TYPE":"PAYLOAD","PERIOD":"95.438","EPOCH":"2022-12-17T12:42:02.666592","MEAN_ELEMENT_THEORY":"SGP4","NORAD_CAT_ID":"52379","MEAN_MOTION_DDOT":"0.0000000000000","APOAPSIS":"541.215","BSTAR":"-0.00001192600000","LAUNCH_DATE":"2022-04-29","SEMIMAJOR_AXIS":"6917.892","FILE":"3705911","EPHEMERIS_TYPE":"0","RCS_SIZE":"LARGE","TLE_LINE1":"1 52379U 22045BA  22351.52919753 -.00000478  00000-0 -11926-4 0  9997","MEAN_MOTION_DOT":"-0.00000478","OBJECT_NAME":"STARLINK-3800","GP_ID":"220707742","COUNTRY_CODE":"US","ELEMENT_SET_NO":"999","MEAN_ANOMALY":"318.3782","ARG_OF_PERICENTER":"41.7371","MEAN_MOTION":"15.08836149","TLE_LINE2":"2 52379  53.2203  78.0955 0002107  41.7371 318.3782 15.08836149 38064","TIME_SYSTEM":"UTC","RA_OF_ASC_NODE":"78.0955","PERIAPSIS":"538.300","ECCENTRICITY":"0.00021070"},{"OBJECT_NAME":"STARLINK-3793","RCS_SIZE":"LARGE","MEAN_MOTION_DOT":"0.00003954","TLE_LINE1":"1 52380U 22045BB  22351.70403653  .00003954  00000-0  26635-3 0  9998","FILE":"3707070","EPHEMERIS_TYPE":"0","BSTAR":"0.00026635000000","LAUNCH_DATE":"2022-04-29","SEMIMAJOR_AXIS":"6917.870","APOAPSIS":"541.587","NORAD_CAT_ID":"52380","MEAN_MOTION_DDOT":"0.0000000000000","MEAN_ELEMENT_THEORY":"SGP4","EPOCH":"2022-12-17T16:53:48.756192","OBJECT_TYPE":"PAYLOAD","REF_FRAME":"TEME","PERIOD":"95.437","OBJECT_ID":"2022-045BB","INCLINATION":"53.2178","DECAY_DATE":null,"REV_AT_EPOCH":"3822","CENTER_NAME":"EARTH","CLASSIFICATION_TYPE":"U","SITE":"AFETR","ECCENTRICITY":"0.00026780","PERIAPSIS":"537.882","RA_OF_ASC_NODE":"67.2962","TIME_SYSTEM":"UTC","ARG_OF_PERICENTER":"30.1265","TLE_LINE2":"2 52380  53.2178  67.2962 0002678  30.1265 329.9881 15.08843522 38221","MEAN_MOTION":"15.08843522","MEAN_ANOMALY":"329.9881","ELEMENT_SET_NO":"999","COUNTRY_CODE":"US","GP_ID":"220757175"},{"ECCENTRICITY":"0.00024670","RA_OF_ASC_NODE":"77.2343","PERIAPSIS":"538.024","TIME_SYSTEM":"UTC","ARG_OF_PERICENTER":"38.8158","MEAN_MOTION":"15.08844897","TLE_LINE2":"2 52381  53.2199  77.2343 0002467  38.8158 321.3011 15.08844897 38093","MEAN_ANOMALY":"321.3011","ELEMENT_SET_NO":"999","GP_ID":"220757425","COUNTRY_CODE":"US","RCS_SIZE":"LARGE","MEAN_MOTION_DOT":"-0.00000935","TLE_LINE1":"1 52381U 22045BC  22351.72055052 -.00000935  00000-0 -40614-4 0  9999","OBJECT_NAME":"STARLINK-3803","FILE":"3707070","EPHEMERIS_TYPE":"0","APOAPSIS":"541.437","BSTAR":"-0.00004061400000","LAUNCH_DATE":"2022-04-29","SEMIMAJOR_AXIS":"6917.865","MEAN_ELEMENT_THEORY":"SGP4","NORAD_CAT_ID":"52381","MEAN_MOTION_DDOT":"0.0000000000000","OBJECT_TYPE":"PAYLOAD","REF_FRAME":"TEME","PERIOD":"95.437","EPOCH":"2022-12-17T17:17:35.564928","INCLINATION":"53.2199","OBJECT_ID":"2022-045BC","SITE":"AFETR","REV_AT_EPOCH":"3809","DECAY_DATE":null,"CENTER_NAME":"EARTH","CLASSIFICATION_TYPE":"U"},{"PERIAPSIS":"535.168","RA_OF_ASC_NODE":"77.2615","TIME_SYSTEM":"UTC","ECCENTRICITY":"0.00066260","ELEMENT_SET_NO":"999","COUNTRY_CODE":"US","GP_ID":"220758676","TLE_LINE2":"2 52382  53.2192  77.2615 0006626 346.6942  13.3874 15.08837858 38095","MEAN_MOTION":"15.08837858","ARG_OF_PERICENTER":"346.6942","MEAN_ANOMALY":"13.3874","SEMIMAJOR_AXIS":"6917.887","LAUNCH_DATE":"2022-04-29","BSTAR":"-0.00009650000000","APOAPSIS":"544.336","MEAN_MOTION_DDOT":"0.0000000000000","NORAD_CAT_ID":"52382","MEAN_ELEMENT_THEORY":"SGP4","OBJECT_NAME":"STARLINK-3799","MEAN_MOTION_DOT":"-0.00001826","TLE_LINE1":"1 52382U 22045BD  22351.71687387 -.00001826  00000-0 -96500-4 0  9996","RCS_SIZE":"LARGE","EPHEMERIS_TYPE":"0","FILE":"3707070","OBJECT_ID":"2022-045BD","INCLINATION":"53.2192","DECAY_DATE":null,"REV_AT_EPOCH":"3809","CLASSIFICATION_TYPE":"U","CENTER_NAME":"EARTH","SITE":"AFETR","EPOCH":"2022-12-17T17:12:17.902368","PERIOD":"95.438","OBJECT_TYPE":"PAYLOAD","REF_FRAME":"TEME"},{"TIME_SYSTEM":"UTC","PERIAPSIS":"537.915","RA_OF_ASC_NODE":"67.7539","ECCENTRICITY":"0.00026710","COUNTRY_CODE":"US","GP_ID":"220758927","ELEMENT_SET_NO":"999","MEAN_ANOMALY":"328.2869","MEAN_MOTION":"15.08834215","TLE_LINE2":"2 52383  53.2201  67.7539 0002671  31.8284 328.2869 15.08834215 38214","ARG_OF_PERICENTER":"31.8284","MEAN_MOTION_DDOT":"0.0000000000000","NORAD_CAT_ID":"52383","MEAN_ELEMENT_THEORY":"SGP4","SEMIMAJOR_AXIS":"6917.898","LAUNCH_DATE":"2022-04-29","BSTAR":"0.00000588750000","APOAPSIS":"541.611","EPHEMERIS_TYPE":"0","FILE":"3707070","OBJECT_NAME":"STARLINK-3811","MEAN_MOTION_DOT":"-0.00000195","TLE_LINE1":"1 52383U 22045BE  22351.60467915 -.00000195  00000-0  58875-5 0  9999","RCS_SIZE":"LARGE","DECAY_DATE":null,"CLASSIFICATION_TYPE":"U","REV_AT_EPOCH":"3821","CENTER_NAME":"EARTH","SITE":"AFETR","OBJECT_ID":"2022-045BE","INCLINATION":"53.2201","EPOCH":"2022-12-17T14:30:44.278560","PERIOD":"95.438","REF_FRAME":"TEME","OBJECT_TYPE":"PAYLOAD"},{"TLE_LINE2":"2 52451  53.2174 317.6252 0002400  29.8147 330.2981 15.08836457 34262","MEAN_MOTION":"15.08836457","ARG_OF_PERICENTER":"29.8147","MEAN_ANOMALY":"330.2981","ELEMENT_SET_NO":"999","COUNTRY_CODE":"US","GP_ID":"220757182","ECCENTRICITY":"0.00024000","PERIAPSIS":"538.096","RA_OF_ASC_NODE":"317.6252","TIME_SYSTEM":"UTC","EPOCH":"2022-12-17T15:10:25.409856","PERIOD":"95.438","REF_FRAME":"TEME","OBJECT_TYPE":"PAYLOAD","OBJECT_ID":"2022-049A","INCLINATION":"53.2174","DECAY_DATE":null,"REV_AT_EPOCH":"3426","CLASSIFICATION_TYPE":"U","CENTER_NAME":"EARTH","SITE":"AFETR","OBJECT_NAME":"STARLINK-3870","TLE_LINE1":"1 52451U 22049A   22351.63223854 -.00000301  00000-0 -81009-6 0  9990","MEAN_MOTION_DOT":"-0.00000301","RCS_SIZE":"LARGE","EPHEMERIS_TYPE":"0","FILE":"3707070","SEMIMAJOR_AXIS":"6917.891","LAUNCH_DATE":"2022-05-06","BSTAR":"-0.00000081009000","APOAPSIS":"541.417","MEAN_MOTION_DDOT":"0.0000000000000","NORAD_CAT_ID":"52451","MEAN_ELEMENT_THEORY":"SGP4"},{"EPOCH":"2022-12-17T17:18:59.601888","PERIOD":"95.438","OBJECT_TYPE":"PAYLOAD","REF_FRAME":"TEME","OBJECT_ID":"2022-049B","INCLINATION":"53.2183","CLASSIFICATION_TYPE":"U","DECAY_DATE":null,"REV_AT_EPOCH":"3427","CENTER_NAME":"EARTH","SITE":"AFETR","OBJECT_NAME":"STARLINK-3909","MEAN_MOTION_DOT":"-0.00000456","TLE_LINE1":"1 52452U 22049B   22351.72152317 -.00000456  00000-0 -10529-4 0  9994","RCS_SIZE":"LARGE","EPHEMERIS_TYPE":"0","FILE":"3707070","SEMIMAJOR_AXIS":"6917.887","LAUNCH_DATE":"2022-05-06","BSTAR":"-0.00001052900000","APOAPSIS":"541.306","MEAN_MOTION_DDOT":"0.0000000000000","NORAD_CAT_ID":"52452","MEAN_ELEMENT_THEORY":"SGP4","TLE_LINE2":"2 52452  53.2183 317.2347 0002247  33.2515 326.8618 15.08837881 34272","MEAN_MOTION":"15.08837881","ARG_OF_PERICENTER":"33.2515","MEAN_ANOMALY":"326.8618","ELEMENT_SET_NO":"999","COUNTRY_CODE":"US","GP_ID":"220757432","ECCENTRICITY":"0.00022470","PERIAPSIS":"538.197","RA_OF_ASC_NODE":"317.2347","TIME_SYSTEM":"UTC"},{"TIME_SYSTEM":"UTC","RA_OF_ASC_NODE":"317.6657","PERIAPSIS":"538.063","ECCENTRICITY":"0.00025190","GP_ID":"220758683","COUNTRY_CODE":"US","ELEMENT_SET_NO":"999","MEAN_ANOMALY":"329.4150","TLE_LINE2":"2 52453  53.2200 317.6657 0002519  30.6990 329.4150 15.08820319 34268","MEAN_MOTION":"15.08820319","ARG_OF_PERICENTER":"30.6990","MEAN_ELEMENT_THEORY":"SGP4","MEAN_MOTION_DDOT":"0.0000000000000","NORAD_CAT_ID":"52453","APOAPSIS":"541.548","SEMIMAJOR_AXIS":"6917.941","LAUNCH_DATE":"2022-05-06","BSTAR":"-0.00008438600000","EPHEMERIS_TYPE":"0","FILE":"3707070","TLE_LINE1":"1 52453U 22049C   22351.62489623 -.00001630  00000-0 -84386-4 0  9994","MEAN_MOTION_DOT":"-0.00001630","RCS_SIZE":"LARGE","OBJECT_NAME":"STARLINK-3872","SITE":"AFETR","CENTER_NAME":"EARTH","DECAY_DATE":null,"REV_AT_EPOCH":"3426","CLASSIFICATION_TYPE":"U","INCLINATION":"53.2200","OBJECT_ID":"2022-049C","PERIOD":"95.439","OBJECT_TYPE":"PAYLOAD","REF_FRAME":"TEME","EPOCH":"2022-12-17T14:59:51.034272"}];
